GLOBALSTAR M001         
1 25162U 98008A   25288.90036741 -.00000101  00000+0 -31641-4 0  9998
2 25162  52.0059 341.8768 0001731 143.0957  28.3455 12.38219923258661
GLOBALSTAR M004         
1 25163U 98008B   25288.74414255 -.00000043  00000+0  33730-3 0  9995
2 25163  52.0019  46.3563 0003249 185.1541 339.4400 12.63405806276920
GLOBALSTAR M002         
1 25164U 98008C   25288.38730495 -.00000038  00000+0  75120-3 0  9996
2 25164  52.0016 298.8239 0001529  10.2208 349.8643 11.61512666198038
GLOBALSTAR M003         
1 25165U 98008D   25288.76069714 -.00000210  00000+0 -12859-2 0  9990
2 25165  51.9932 194.5780 0007748 169.9764 223.9189 12.12055213247843
GLOBALSTAR M014         
1 25306U 98023A   25288.78232773 -.00000078  00000+0 -35447-5 0  9996
2 25306  51.9828 218.5191 0000296 199.0333 175.4159 11.65482621205233
GLOBALSTAR M006         
1 25307U 98023B   25288.72369427 -.00000035  00000+0  83042-3 0  9992
2 25307  51.9931 275.6469 0003217 329.7454 200.9863 11.58177102230795
GLOBALSTAR M015         
1 25308U 98023C   25288.47066256 -.00000042  00000+0  71733-3 0  9991
2 25308  51.9858  20.2585 0011927 289.3261 154.4461 11.48859428207902
GLOBALSTAR M008         
1 25309U 98023D   25288.17340544 -.00000071  00000+0  19947-3 0  9995
2 25309  51.9961 210.1816 0003380  66.6598  80.6846 12.36074095252687
